{
  "55501": {
    "noradId": "55501",
    "tle": [
      "1 55501C 23015BE  25296.12409722 -.00016661  00000+0 -12293-2 0  2968",
      "2 55501  43.0047   5.9753 0001280 268.2644 184.5282 15.02553072    19"
    ]
  },
  "55569": {
    "noradId": "55569",
    "tle": [
      "1 55569C 23020A   25296.12548611 -.00013045  00000+0 -96258-3 0  2966",
      "2 55569  43.0045  32.4905 0001377 270.8392  23.8910 15.02546753    12"
    ]
  },
  "55570": {
    "noradId": "55570",
    "tle": [
      "1 55570C 23020B   25296.12409722 -.00025896  00000+0 -19104-2 0  2968",
      "2 55570  43.0041  32.5277 0001336 269.8383   5.3327 15.02567862    17"
    ]
  },
  "55571": {
    "noradId": "55571",
    "tle": [
      "1 55571C 23020C   25296.13104167 -.00004176  00000+0 -30802-3 0  2962",
      "2 55571  43.0041  32.4181 0001402 264.8939  77.8189 15.02557246    12"
    ]
  },
  "55572": {
    "noradId": "55572",
    "tle": [
      "1 55572C 23020D   25296.12687500  .00006617  00000+0  48834-3 0  2963",
      "2 55572  43.0044  32.3830 0001496 265.5022  78.8209 15.02519658    19"
    ]
  },
  "55573": {
    "noradId": "55573",
    "tle": [
      "1 55573C 23020E   25296.12340278  .00012475  00000+0  92051-3 0  2961",
      "2 55573  43.0041  32.4169 0001416 266.4306  53.0798 15.02523119    15"
    ]
  },
  "55574": {
    "noradId": "55574",
    "tle": [
      "1 55574C 23020F   25296.12895833  .00013304  00000+0  98167-3 0  2960",
      "2 55574  43.0040  32.2554 0001372 262.0831 141.6000 15.02522788    18"
    ]
  },
  "55575": {
    "noradId": "55575",
    "tle": [
      "1 55575C 23020G   25296.13173611  .00013670  00000+0  10089-2 0  2967",
      "2 55575  43.0045  32.3124 0001305 266.0934 122.5779 15.02514204    17"
    ]
  },
  "55576": {
    "noradId": "55576",
    "tle": [
      "1 55576C 23020H   25296.13104167  .00031606  00000+0  23314-2 0  2962",
      "2 55576  43.0045   5.9944 0001334 265.3194 260.9289 15.02514688    15"
    ]
  },
  "55577": {
    "noradId": "55577",
    "tle": [
      "1 55577C 23020J   25296.12895833  .00011313  00000+0  83480-3 0  2963",
      "2 55577  43.0041  32.2193 0001458 273.0378 118.6835 15.02522828    19"
    ]
  },
  "55579": {
    "noradId": "55579",
    "tle": [
      "1 55579C 23020L   25296.12548611  .00005605  00000+0  41364-3 0  2966",
      "2 55579  43.0041  32.0469 0001362 268.1439 212.9148 15.02524751    14"
    ]
  },
  "55580": {
    "noradId": "55580",
    "tle": [
      "1 55580C 23020M   25296.12548611  .00016243  00000+0  11982-2 0  2960",
      "2 55580  43.0042   5.9934 0001347 265.7480 242.5286 15.02529521    17"
    ]
  },
  "55581": {
    "noradId": "55581",
    "tle": [
      "1 55581C 23020N   25296.12826389 -.00009023  00000+0 -66586-3 0  2963",
      "2 55581  43.0042  32.2164 0001267 264.2625 153.6999 15.02541005    16"
    ]
  },
  "55582": {
    "noradId": "55582",
    "tle": [
      "1 55582C 23020P   25296.13104167  .00016171  00000+0  11933-2 0  2963",
      "2 55582  43.0041  19.3814 0001328 257.8944 113.5900 15.02516380    19"
    ]
  },
  "55583": {
    "noradId": "55583",
    "tle": [
      "1 55583C 23020Q   25296.13034722 -.00015304  00000+0 -11293-2 0  2961",
      "2 55583  43.0039  32.1184 0001301 269.8920 195.4155 15.02549845    11"
    ]
  },
  "55584": {
    "noradId": "55584",
    "tle": [
      "1 55584C 23020R   25296.12687500  .00016203  00000+0  11957-2 0  2963",
      "2 55584  43.0044  32.1114 0001887 275.9097 182.5139 15.02512940    18"
    ]
  },
  "55585": {
    "noradId": "55585",
    "tle": [
      "1 55585C 23020S   25296.12756944  .00013596  00000+0  10039-2 0  2965",
      "2 55585  43.0039  19.5525 0001370 247.9455  44.7241 15.02495859    14"
    ]
  },
  "55586": {
    "noradId": "55586",
    "tle": [
      "1 55586C 23020T   25296.12409722  .00013618  00000+0  10048-2 0  2960",
      "2 55586  43.0042  32.0261 0001405 263.7290 221.8260 15.02521856    14"
    ]
  },
  "55587": {
    "noradId": "55587",
    "tle": [
      "1 55587C 23020U   25296.12618056 -.00005395  00000+0 -39808-3 0  2964",
      "2 55587  43.0040  32.0220 0001281 265.5695 201.2563 15.02542156    13"
    ]
  },
  "55588": {
    "noradId": "55588",
    "tle": [
      "1 55588C 23020V   25296.13034722  .00011263  00000+0  83110-3 0  2962",
      "2 55588  43.0039  31.9054 0001276 264.9000 290.5693 15.02523663    19"
    ]
  },
  "55589": {
    "noradId": "55589",
    "tle": [
      "1 55589C 23020W   25296.13173611  .00003988  00000+0  29428-3 0  2961",
      "2 55589  43.0045  31.9712 0001367 270.6549 262.2788 15.02527816    16"
    ]
  },
  "55590": {
    "noradId": "55590",
    "tle": [
      "1 55590C 23020X   25296.12756944  .00012824  00000+0  94630-3 0  2964",
      "2 55590  43.0039  31.8352 0001265 269.9933 306.4516 15.02519856    10"
    ]
  },
  "55591": {
    "noradId": "55591",
    "tle": [
      "1 55591C 23020Y   25296.12895833  .00010914  00000+0  80543-3 0  2962",
      "2 55591  43.0042  31.9561 0001436 273.0517 256.8601 15.02517716    18"
    ]
  },
  "55592": {
    "noradId": "55592",
    "tle": [
      "1 55592C 23020Z   25296.12965278 -.00002198  00000+0 -16216-3 0  2967",
      "2 55592  43.0040  31.7668 0001357 267.8400 343.9739 15.02534079    18"
    ]
  },
  "55593": {
    "noradId": "55593",
    "tle": [
      "1 55593C 23020AA  25296.13034722  .00003260  00000+0  24052-3 0  2966",
      "2 55593  43.0042  31.8632 0001142 276.3692 297.1054 15.02531401    19"
    ]
  },
  "55594": {
    "noradId": "55594",
    "tle": [
      "1 55594C 23020AB  25296.12965278  .00015680  00000+0  11569-2 0  2962",
      "2 55594  43.0046  31.7248 0001408 261.0524   8.7965 15.02521240    13"
    ]
  },
  "55596": {
    "noradId": "55596",
    "tle": [
      "1 55596C 23020AD  25296.12618056 -.00012859  00000+0 -94882-3 0  2960",
      "2 55596  43.0039  31.7137 0001417 266.6508 356.4132 15.02547525    10"
    ]
  },
  "55597": {
    "noradId": "55597",
    "tle": [
      "1 55597C 23020AE  25296.12618056  .00015328  00000+0  11313-2 0  2960",
      "2 55597  43.0040  19.5146 0001321 271.1779  31.9147 15.02512052    10"
    ]
  },
  "55598": {
    "noradId": "55598",
    "tle": [
      "1 55598C 23020AF  25296.12548611  .00015956  00000+0  11777-2 0  2961",
      "2 55598  43.0040  19.6143 0001354 261.8135 343.4555 15.02509389    10"
    ]
  },
  "55599": {
    "noradId": "55599",
    "tle": [
      "1 55599C 23020AG  25296.13173611 -.00015033  00000+0 -11092-2 0  2965",
      "2 55599  43.0042  19.5395 0001315 264.2176  32.9049 15.02553236    18"
    ]
  },
  "55600": {
    "noradId": "55600",
    "tle": [
      "1 55600C 23020AH  25296.13034722 -.00005576  00000+0 -41144-3 0  2960",
      "2 55600  43.0046  19.4064 0001283 266.7635  88.9437 15.02540220    19"
    ]
  },
  "55601": {
    "noradId": "55601",
    "tle": [
      "1 55601C 23020AJ  25296.12479167  .00013135  00000+0  96925-3 0  2961",
      "2 55601  43.0042  31.6772 0001415 264.0806   9.5040 15.02520706    12"
    ]
  },
  "55602": {
    "noradId": "55602",
    "tle": [
      "1 55602C 23020AK  25296.13104167 -.00008382  00000+0 -61848-3 0  2964",
      "2 55602  43.0046  19.5141 0001305 264.9822  40.3907 15.02545680    10"
    ]
  },
  "55603": {
    "noradId": "55603",
    "tle": [
      "1 55603C 23020AL  25296.12618056 -.00005646  00000+0 -41658-3 0  2968",
      "2 55603  43.0046  19.4757 0001305 247.8772  67.2122 15.02542316    17"
    ]
  },
  "55604": {
    "noradId": "55604",
    "tle": [
      "1 55604C 23020AM  25296.12340278 -.00010314  00000+0 -76104-3 0  2969",
      "2 55604  43.0039   6.0827 0001310 264.5693 202.3969 15.02547323    18"
    ]
  },
  "55605": {
    "noradId": "55605",
    "tle": [
      "1 55605C 23020AN  25296.12965278  .00003766  00000+0  27792-3 0  2963",
      "2 55605  43.0039  19.3954 0001341 268.1032  89.8472 15.02528949    18"
    ]
  },
  "55607": {
    "noradId": "55607",
    "tle": [
      "1 55607C 23020AQ  25296.12895833  .00016056  00000+0  11848-2 0  2964",
      "2 55607  43.0044  19.3155 0001349 261.1799 129.0790 15.02518359    14"
    ]
  },
  "55608": {
    "noradId": "55608",
    "tle": [
      "1 55608C 23020AR  25296.12826389  .00016266  00000+0  12002-2 0  2961",
      "2 55608  43.0043  19.2909 0001415 259.7615 138.7511 15.02519557    13"
    ]
  },
  "55609": {
    "noradId": "55609",
    "tle": [
      "1 55609C 23020AS  25296.12479167  .00016309  00000+0  12033-2 0  2962",
      "2 55609  43.0046  19.3781 0001354 262.3093  87.3374 15.02524325    13"
    ]
  },
  "55610": {
    "noradId": "55610",
    "tle": [
      "1 55610C 23020AT  25296.12618056 -.00001170  00000+0 -86335-4 0  2966",
      "2 55610  43.0046  19.2009 0001385 274.2374 155.0715 15.02533439    13"
    ]
  },
  "55611": {
    "noradId": "55611",
    "tle": [
      "1 55611C 23020AU  25296.12340278 -.00013560  00000+0 -10004-2 0  2969",
      "2 55611  43.0044  19.1885 0001263 270.5673 155.6979 15.02552602    10"
    ]
  },
  "55612": {
    "noradId": "55612",
    "tle": [
      "1 55612C 23020AV  25296.12479167  .00015947  00000+0  11767-2 0  2966",
      "2 55612  43.0043  19.1658 0001431 259.4170 180.4066 15.02517737    16"
    ]
  },
  "55613": {
    "noradId": "55613",
    "tle": [
      "1 55613C 23020AW  25296.12756944  .00853280  00000+0  10922-1 0  2969",
      "2 55613  43.0029  10.1369 0001785 276.5968  13.4614 15.57453905    18"
    ]
  },
  "55614": {
    "noradId": "55614",
    "tle": [
      "1 55614C 23020AX  25296.12756944  .00018478  00000+0  13634-2 0  2966",
      "2 55614  43.0030   6.1569 0001350 264.0973 165.3510 15.02518920    15"
    ]
  },
  "55615": {
    "noradId": "55615",
    "tle": [
      "1 55615C 23020AY  25296.12548611  .00015788  00000+0  11649-2 0  2962",
      "2 55615  43.0041  19.1186 0001435 260.6419 200.9592 15.02523244    19"
    ]
  }
}